CS1                     
1 49261U 21088B   26068.75173904  .00015722  00000+0  51176-3 0  9998
2 49261  97.3882 132.1684 0014129  78.0335 282.2490 15.31848439245182
STARLINK-30123          
1 56838U 23079R   26068.28086847 -.00002086  00000+0 -66311-4 0  9994
2 56838  43.0029  36.2461 0000573 244.6069 115.4724 15.27582130153689
